[
  {
    "OBJECT_NAME": "STARLINK-1008",
    "OBJECT_ID": "2019-074B",
    "EPOCH": "2026-06-25T21:12:03.998304",
    "MEAN_MOTION": 15.51094535,
    "ECCENTRICITY": 0.0001775,
    "INCLINATION": 53.1519,
    "RA_OF_ASC_NODE": 27.0631,
    "ARG_OF_PERICENTER": 185.1697,
    "MEAN_ANOMALY": 174.9295,
    "MEAN_MOTION_DOT": 0.00076791,
    "MEAN_MOTION_DDOT": 0,
    "BSTAR": 0.0012911,
    "NORAD_CAT_ID": 44714
  },
  {
    "OBJECT_NAME": "STARLINK-1012",
    "OBJECT_ID": "2019-074F",
    "EPOCH": "2026-06-25T21:03:48.311136",
    "MEAN_MOTION": 15.51021124,
    "ECCENTRICITY": 0.0001432,
    "INCLINATION": 53.1532,
    "RA_OF_ASC_NODE": 27.4092,
    "ARG_OF_PERICENTER": 97.2213,
    "MEAN_ANOMALY": 262.8931,
    "MEAN_MOTION_DOT": 0.00031122,
    "MEAN_MOTION_DDOT": 0,
    "BSTAR": 0.0005421,
    "NORAD_CAT_ID": 44718
  },
  {
    "OBJECT_NAME": "STARLINK-1020",
    "OBJECT_ID": "2019-074M",
    "EPOCH": "2026-06-25T20:55:12.100000",
    "MEAN_MOTION": 15.50982214,
    "ECCENTRICITY": 0.000192,
    "INCLINATION": 53.1498,
    "RA_OF_ASC_NODE": 87.2331,
    "ARG_OF_PERICENTER": 230.114,
    "MEAN_ANOMALY": 129.772,
    "MEAN_MOTION_DOT": 0.0002112,
    "MEAN_MOTION_DDOT": 0,
    "BSTAR": 0.0004412,
    "NORAD_CAT_ID": 44726
  },
  {
    "OBJECT_NAME": "STARLINK-1032",
    "OBJECT_ID": "2019-074AA",
    "EPOCH": "2026-06-25T20:44:12.100000",
    "MEAN_MOTION": 15.51010114,
    "ECCENTRICITY": 0.000111,
    "INCLINATION": 53.1522,
    "RA_OF_ASC_NODE": 87.6121,
    "ARG_OF_PERICENTER": 45.2,
    "MEAN_ANOMALY": 318.4,
    "MEAN_MOTION_DOT": 0.0001551,
    "MEAN_MOTION_DDOT": 0,
    "BSTAR": 0.0003298,
    "NORAD_CAT_ID": 44738
  },
  {
    "OBJECT_NAME": "STARLINK-1044",
    "OBJECT_ID": "2019-074AM",
    "EPOCH": "2026-06-25T20:35:12.100000",
    "MEAN_MOTION": 15.51050114,
    "ECCENTRICITY": 0.000161,
    "INCLINATION": 53.1502,
    "RA_OF_ASC_NODE": 147.6121,
    "ARG_OF_PERICENTER": 10.2,
    "MEAN_ANOMALY": 83.4,
    "MEAN_MOTION_DOT": 0.0001771,
    "MEAN_MOTION_DDOT": 0,
    "BSTAR": 0.0002918,
    "NORAD_CAT_ID": 44750
  },
  {
    "OBJECT_NAME": "STARLINK-1056",
    "OBJECT_ID": "2019-074AY",
    "EPOCH": "2026-06-25T20:25:12.100000",
    "MEAN_MOTION": 15.50990114,
    "ECCENTRICITY": 0.000151,
    "INCLINATION": 53.1512,
    "RA_OF_ASC_NODE": 147.9121,
    "ARG_OF_PERICENTER": 350.2,
    "MEAN_ANOMALY": 178.4,
    "MEAN_MOTION_DOT": 0.0001881,
    "MEAN_MOTION_DDOT": 0,
    "BSTAR": 0.0003118,
    "NORAD_CAT_ID": 44762
  }
]
